1 46984U 20086A   21332.47347435 -.00000061  00000-0  00000+0 0  9992
2 46984  66.0433 346.4706 0007861 265.0247  94.9869 12.80930498 47621
1 46984U 20086A   21333.33230964 -.00000061  00000-0  00000+0 0  9996
2 46984  66.0423 344.6866 0007844 266.3311  93.6774 12.80930299 47736
1 46984U 20086A   21334.11306990 -.00000061  00000-0  00000+0 0  9996
2 46984  66.0425 343.0654 0007846 266.6044  93.4065 12.80930220 47830
1 46984U 20086A   21335.12805768 -.00000061  00000-0  00000+0 0  9995
2 46984  66.0413 340.9567 0007917 266.2812  93.7283 12.80929972 47965
1 46984U 20086A   21336.29919785 -.00000061  00000-0  00000+0 0  9999
2 46984  66.0412 338.5240 0007891 266.5331  93.4768 12.80929767 48110
1 46984U 20086A   21337.31418582 -.00000061  00000-0  00000+0 0  9992
2 46984  66.0413 336.4154 0007890 265.5975  94.4134 12.80929647 48243
1 46984U 20086A   21338.09494558 -.00000061  00000-0  00000-0 0  9996
2 46984  66.0416 334.7941 0007901 265.3331  94.6778 12.80929604 48348
1 46984U 20086A   21339.34416104 -.00000061  00000-0  00000-0 0  9996
2 46984  66.0415 332.1993 0007941 264.3945  95.6170 12.80929554 48509
1 46984U 20086A   21340.35914838 -.00000061  00000-0  00000-0 0  9996
2 46984  66.0421 330.0909 0007950 263.9207  96.0901 12.80929549 48631
1 46984U 20086A   21341.37413595 -.00000061  00000-0  00000-0 0  9993
2 46984  66.0422 327.9829 0007924 263.8143  96.1975 12.80929599 48768
1 46984U 20086A   21342.31104727 -.00000061  00000-0  00000-0 0  9992
2 46984  66.0420 326.0365 0007925 263.8958  96.1156 12.80929623 48888
1 46984U 20086A   21343.32603456 -.00000061  00000-0  00000+0 0  9996
2 46984  66.0421 323.9279 0007909 263.4385  96.5731 12.80929681 49014
1 46984U 20086A   21344.34102200 -.00000061  00000-0  00000+0 0  9990
2 46984  66.0423 321.8197 0007924 263.5713  96.4399 12.80929707 49147
1 46984U 20086A   21345.35600939 -.00000061  00000-0  00000+0 0  9994
2 46984  66.0429 319.7113 0007907 263.6707  96.3408 12.80929775 49271
1 46984U 20086A   21346.37099691 -.00000061  00000-0  00000+0 0  9994
2 46984  66.0431 317.6035 0007892 263.4499  96.5613 12.80929758 49409
1 46984U 20086A   21347.30790849 -.00000061  00000-0  00000+0 0  9991
2 46984  66.0433 315.6570 0007889 263.6049  96.4068 12.80929772 49524
1 46984U 20086A   21348.32289598 -.00000061  00000-0  00000+0 0  9998
2 46984  66.0427 313.5477 0007874 264.0759  95.9359 12.80929750 49654
1 46984U 20086A   21349.33788349 -.00000061  00000-0  00000+0 0  9998
2 46984  66.0432 311.4395 0007857 264.3998  95.6118 12.80929757 49786
1 46984U 20086A   21350.27479496 -.00000061  00000-0  00000+0 0  9993
2 46984  66.0435 309.4939 0007836 264.4261  95.5852 12.80929759 49901
1 46984U 20086A   21351.28978248 -.00000061  00000-0  00000+0 0  9994
2 46984  66.0436 307.3857 0007836 264.4382  95.5738 12.80929790 50036
1 46984U 20086A   21352.30476986 -.00000061  00000-0  00000+0 0  9990
2 46984  66.0438 305.2778 0007835 264.4473  95.5645 12.80929808 50168
1 46984U 20086A   21353.31975733 -.00000061  00000-0  00000+0 0  9996
2 46984  66.0442 303.1698 0007830 264.4291  95.5831 12.80929836 50296
1 46984U 20086A   21354.33474468 -.00000061  00000-0  00000+0 0  9998
2 46984  66.0440 301.0616 0007843 264.2585  95.7538 12.80929860 50427
1 46984U 20086A   21355.19358022 -.00000061  00000-0  00000-0 0  9991
2 46984  66.0441 299.2781 0007849 264.2960  95.7160 12.80929856 50530
1 46984U 20086A   21356.20856779 -.00000061  00000-0  00000+0 0  9995
2 46984  66.0441 297.1705 0007836 263.9909  96.0215 12.80929847 50667
1 46984U 20086A   21357.22355544 -.00000061  00000-0  00000+0 0  9992
2 46984  66.0439 295.0621 0007843 263.9874  96.0248 12.80929793 50797
1 46984U 20086A   21358.23854316 -.00000061  00000-0  00000-0 0  9996
2 46984  66.0438 292.9534 0007805 264.3622  95.6505 12.80929770 50920
1 46984U 20086A   21359.48775854 -.00000061  00000-0  00000+0 0  9992
2 46984  66.0436 290.3593 0007813 264.0481  95.9643 12.80929748 51083
1 46984U 20086A   21360.19044229 -.00000061  00000-0  00000+0 0  9997
2 46984  66.0436 288.8998 0007783 264.3702  95.6427 12.80929739 51176
1 46984U 20086A   21361.20542972 -.00000061  00000-0  00000+0 0  9998
2 46984  66.0439 286.7915 0007761 264.4128  95.6003 12.80929769 51302
1 46984U 20086A   21362.14234111 -.00000061  00000-0  00000-0 0  9996
2 46984  66.0440 284.8459 0007744 264.5912  95.4213 12.80929779 51424
1 46984U 20086A   21363.23540455 -.00000061  00000-0  00000-0 0  9998
2 46984  66.0442 282.5763 0007740 264.3769  95.6361 12.80929807 51566
1 46984U 20086A   21364.17231560 -.00000061  00000-0  00000+0 0  9995
2 46984  66.0440 280.6297 0007749 264.3710  95.6420 12.80929881 51681
1 46984U 20086A   21365.18730279 -.00000061  00000-0  00000+0 0  9998
2 46984  66.0442 278.5219 0007659 265.2838  94.7285 12.80929970 51817
1 46984U 20086A   22001.12421445 -.00000061  00000-0  00000-0 0  9993
2 46984  66.0442 276.5764 0007610 265.4042  94.6095 12.80929995 51934
1 46984U 20086A   22002.13920165 -.00000061  00000-0  00000+0 0  9997
2 46984  66.0444 274.4686 0007620 265.0642  94.9503 12.80930069 52065
1 46984U 20086A   22003.15418895 -.00000061  00000-0  00000+0 0  9992
2 46984  66.0447 272.3609 0007621 264.7601  95.2545 12.80930079 52197
1 46984U 20086A   22004.09110023 -.00000061  00000-0  00000+0 0  9998
2 46984  66.0450 270.4154 0007601 265.4314  94.5803 12.80930020 52311
1 46984U 20086A   22005.10608822 -.00000061  00000-0  00000+0 0  9990
2 46984  66.0453 268.3072 0007657 265.1220  94.8924 12.80929992 52440
1 46984U 20086A   22006.12107540 -.00000061  00000-0  00000+0 0  9994
2 46984  66.0452 266.1984 0007626 266.0453  93.9677 12.80930005 52577
1 46984U 20086A   22007.44836672 -.00000061  00000-0  00000+0 0  9995
2 46984  66.0451 263.4412 0007635 265.7433  94.2713 12.80930009 52744
1 46984U 20086A   22008.38527795 -.00000061  00000-0  00000+0 0  9992
2 46984  66.0448 261.4955 0007647 265.5889  94.4251 12.80930002 52861
1 46984U 20086A   22009.40026499 -.00000061  00000-0  00000+0 0  9991
2 46984  66.0446 259.3871 0007666 265.6147  94.3994 12.80930051 52992
1 46984U 20086A   22010.41525189 -.00000061  00000-0  00000+0 0  9994
2 46984  66.0442 257.2783 0007657 265.8107  94.2037 12.80930109 53122
1 46984U 20086A   22011.35216306 -.00000061  00000-0  00000+0 0  9996
2 46984  66.0437 255.3318 0007662 265.8758  94.1392 12.80930149 53247
1 46984U 20086A   22012.36714987 -.00000061  00000-0  00000+0 0  9996
2 46984  66.0438 253.2240 0007677 265.6790  94.3350 12.80930205 53372
1 46984U 20086A   22013.38213671 -.00000061  00000-0  00000+0 0  9993
2 46984  66.0428 251.1150 0007685 265.4893  94.5246 12.80930191 53504
1 46984U 20086A   22014.00674416 -.00000061  00000-0  00000+0 0  9991
2 46984  66.0429 249.8181 0007687 265.2045  94.8101 12.80930225 53581
1 46984U 20086A   22015.02173100 -.00000061  00000-0  00000+0 0  9998
2 46984  66.0435 247.7110 0007663 265.1464  94.8675 12.80930289 53716
1 46984U 20086A   22016.34902194 -.00000061  00000-0  00000+0 0  9997
2 46984  66.0429 244.9534 0007647 265.6331  94.3810 12.80930261 53882
1 46984U 20086A   22017.36400889 -.00000061  00000-0  00000+0 0  9994
2 46984  66.0422 242.8443 0007630 265.7315  94.2831 12.80930267 54010
1 46984U 20086A   22018.30092002 -.00000061  00000-0  00000+0 0  9993
2 46984  66.0429 240.8991 0007614 265.8548  94.1596 12.80930297 54137
1 46984U 20086A   22019.31590687 -.00000061  00000-0  00000+0 0  9997
2 46984  66.0425 238.7907 0007631 265.6936  94.3208 12.80930308 54263
1 46984U 20086A   22020.33089359 -.00000061  00000-0  00000+0 0  9990
2 46984  66.0427 236.6826 0007634 265.3348  94.6796 12.80930350 54395
1 46984U 20086A   22021.34588053 -.00000061  00000-0  00000+0 0  9997
2 46984  66.0427 234.5746 0007587 265.6845  94.3304 12.80930397 54523
1 46984U 20086A   22022.28279128 -.00000061  00000-0  00000-0 0  9992
2 46984  66.0422 232.6274 0007539 266.3947  93.6210 12.80930495 54641
1 46984U 20086A   22023.29777756 -.00000061  00000-0  00000-0 0  9994
2 46984  66.0421 230.5192 0007578 266.0965  93.9186 12.80930562 54770
1 46984U 20086A   22024.31276409 -.00000061  00000-0  00000-0 0  9997
2 46984  66.0417 228.4111 0007583 265.8831  94.1321 12.80930600 54909
1 46984U 20086A   22025.56197838 -.00000061  00000-0  00000+0 0  9992
2 46984  66.0422 225.8169 0007604 265.8523  94.1626 12.80930671 55065
1 46984U 20086A   22026.26466135 -.00000061  00000-0  00000-0 0  9990
2 46984  66.0418 224.3573 0007608 265.6641  94.3505 12.80930664 55156
1 46984U 20086A   22027.35772387 -.00000061  00000-0  00000+0 0  9999
2 46984  66.0413 222.0869 0007626 265.5571  94.4580 12.80930677 55298
1 46984U 20086A   22028.21655855 -.00000061  00000-0  00000-0 0  9996
2 46984  66.0412 220.3030 0007634 265.5089  94.5056 12.80930686 55403
1 46984U 20086A   22029.23154497 -.00000061  00000-0  00000+0 0  9994
2 46984  66.0411 218.1943 0007637 265.5374  94.4768 12.80930719 55530
1 46984U 20086A   22030.24653146 -.00000061  00000-0  00000+0 0  9992
2 46984  66.0414 216.0868 0007642 265.3264  94.6878 12.80930762 55664
1 46984U 20086A   22031.49574576 -.00000061  00000-0  00000+0 0  9999
2 46984  66.0410 213.4914 0007637 265.3290  94.6860 12.80930764 55827
1 46984U 20086A   22032.19842860 -.00000061  00000-0  00000-0 0  9992
2 46984  66.0409 212.0316 0007614 265.4238  94.5910 12.80930794 55912
1 46984U 20086A   22033.52571840 -.00000061  00000-0  00000+0 0  9996
2 46984  66.0402 209.2741 0007629 265.5443  94.4703 12.80930814 56081
1 46984U 20086A   22034.46262880 -.00000061  00000-0  00000-0 0  9992
2 46984  66.0402 207.3277 0007640 265.5088  94.5060 12.80930864 56208
1 46984U 20086A   22035.47761507 -.00000061  00000-0  00000+0 0  9993
2 46984  66.0404 205.2195 0007647 265.5716  94.4434 12.80930933 56336
1 46984U 20086A   22036.41452530 -.00000061  00000-0  00000-0 0  9992
2 46984  66.0403 203.2734 0007632 265.9975  94.0171 12.80931006 56456
1 46984U 20086A   22037.50758733 -.00000061  00000-0  00000+0 0  9996
2 46984  66.0407 201.0033 0007619 265.8684  94.1461 12.80931063 56590
